{
  "type": "FeatureCollection",
  "features": [
    {
      "type": "Feature",
      "properties": {
        "norad_id": 43823,
        "name": "GEO-KOMPSAT-2A",
        "group": "weather",
        "lat": -0.010402938520192757,
        "lon": -45.896370730196594,
        "alt_km": 35787.05382639108,
        "timestamp": "2025-12-11T07:02:23.376515+00:00",
        "meta_object_name": "GEO-KOMPSAT-2A",
        "meta_object_id": "2018-100A",
        "meta_epoch": "2025-12-10T21:00:03.213216",
        "meta_mean_motion": 1.00269356,
        "meta_eccentricity": 5.56e-06,
        "meta_inclination": 0.0424,
        "meta_ra_of_asc_node": 144.1985,
        "meta_arg_of_pericenter": 1.5245,
        "meta_mean_anomaly": 17.3918,
        "meta_ephemeris_type": 0,
        "meta_classification_type": "U",
        "meta_norad_cat_id": 43823,
        "meta_element_set_no": 999,
        "meta_rev_at_epoch": 2574,
        "meta_bstar": 0,
        "meta_mean_motion_dot": -3.39e-06,
        "meta_mean_motion_ddot": 0,
        "tle_line1": "1 43823U 18100A   25344.87503719 -.00000339  00000+0  00000+0 0  9992",
        "tle_line2": "2 43823   0.0424 144.1985 0000055   1.5245  17.3918  1.00269356 25740"
      },
      "geometry": {
        "type": "Point",
        "coordinates": [
          -45.896370730196594,
          -0.010402938520192757
        ]
      }
    },
    {
      "type": "Feature",
      "properties": {
        "norad_id": 44387,
        "name": "METEOR-M2 2",
        "group": "weather",
        "lat": 16.91491514242696,
        "lon": 147.73431739901656,
        "alt_km": 810.5113844661082,
        "timestamp": "2025-12-11T07:02:23.376527+00:00",
        "meta_object_name": "METEOR-M2 2",
        "meta_object_id": "2019-038A",
        "meta_epoch": "2025-12-10T21:50:53.373408",
        "meta_mean_motion": 14.24290551,
        "meta_eccentricity": 0.00012009,
        "meta_inclination": 98.8973,
        "meta_ra_of_asc_node": 324.6162,
        "meta_arg_of_pericenter": 152.3168,
        "meta_mean_anomaly": 207.8075,
        "meta_ephemeris_type": 0,
        "meta_classification_type": "U",
        "meta_norad_cat_id": 44387,
        "meta_element_set_no": 999,
        "meta_rev_at_epoch": 33449,
        "meta_bstar": 0.00015583778,
        "meta_mean_motion_dot": 3.14e-06,
        "meta_mean_motion_ddot": 0,
        "tle_line1": "1 44387U 19038A   25344.91033997  .00000314  00000+0  15584-3 0  9999",
        "tle_line2": "2 44387  98.8973 324.6162 0001200 152.3168 207.8075 14.24290551334490"
      },
      "geometry": {
        "type": "Point",
        "coordinates": [
          147.73431739901656,
          16.91491514242696
        ]
      }
    },
    {
      "type": "Feature",
      "properties": {
        "norad_id": 47719,
        "name": "ARKTIKA-M 1",
        "group": "weather",
        "lat": 62.97754478219255,
        "lon": 166.54775937438944,
        "alt_km": 39158.9197643452,
        "timestamp": "2025-12-11T07:02:23.376549+00:00",
        "meta_object_name": "ARKTIKA-M 1",
        "meta_object_id": "2021-016A",
        "meta_epoch": "2025-12-09T14:03:23.859648",
        "meta_mean_motion": 2.00631311,
        "meta_eccentricity": 0.7202538,
        "meta_inclination": 63.1769,
        "meta_ra_of_asc_node": 84.4506,
        "meta_arg_of_pericenter": 269.1116,
        "meta_mean_anomaly": 15.6235,
        "meta_ephemeris_type": 0,
        "meta_classification_type": "U",
        "meta_norad_cat_id": 47719,
        "meta_element_set_no": 999,
        "meta_rev_at_epoch": 3498,
        "meta_bstar": 0,
        "meta_mean_motion_dot": -6.1e-07,
        "meta_mean_motion_ddot": 0,
        "tle_line1": "1 47719U 21016A   25343.58569282 -.00000061  00000+0  00000+0 0  9996",
        "tle_line2": "2 47719  63.1769  84.4506 7202538 269.1116  15.6235  2.00631311 34985"
      },
      "geometry": {
        "type": "Point",
        "coordinates": [
          166.54775937438944,
          62.97754478219255
        ]
      }
    },
    {
      "type": "Feature",
      "properties": {
        "norad_id": 49008,
        "name": "FENGYUN 3E",
        "group": "weather",
        "lat": 34.442846227765806,
        "lon": 171.89263612375413,
        "alt_km": 823.7539879667902,
        "timestamp": "2025-12-11T07:02:23.376563+00:00",
        "meta_object_name": "FENGYUN 3E",
        "meta_object_id": "2021-062A",
        "meta_epoch": "2025-12-10T23:35:39.050304",
        "meta_mean_motion": 14.1987996,
        "meta_eccentricity": 5.964e-05,
        "meta_inclination": 98.7477,
        "meta_ra_of_asc_node": 345.5246,
        "meta_arg_of_pericenter": 278.3301,
        "meta_mean_anomaly": 81.7807,
        "meta_ephemeris_type": 0,
        "meta_classification_type": "U",
        "meta_norad_cat_id": 49008,
        "meta_element_set_no": 999,
        "meta_rev_at_epoch": 22987,
        "meta_bstar": 9.590591e-05,
        "meta_mean_motion_dot": 1.6e-06,
        "meta_mean_motion_ddot": 0,
        "tle_line1": "1 49008U 21062A   25344.98309086  .00000160  00000+0  95906-4 0  9992",
        "tle_line2": "2 49008  98.7477 345.5246 0000596 278.3301  81.7807 14.19879960229871"
      },
      "geometry": {
        "type": "Point",
        "coordinates": [
          171.89263612375413,
          34.442846227765806
        ]
      }
    },
    {
      "type": "Feature",
      "properties": {
        "norad_id": 51850,
        "name": "GOES 18",
        "group": "weather",
        "lat": 0.007095780716646412,
        "lon": 48.85625675322778,
        "alt_km": 35786.70971554001,
        "timestamp": "2025-12-11T07:02:23.376574+00:00",
        "meta_object_name": "GOES 18",
        "meta_object_id": "2022-021A",
        "meta_epoch": "2025-12-10T18:01:35.306976",
        "meta_mean_motion": 1.00271681,
        "meta_eccentricity": 7.087e-05,
        "meta_inclination": 0.0198,
        "meta_ra_of_asc_node": 208.618,
        "meta_arg_of_pericenter": 97.8116,
        "meta_mean_anomaly": 266.6878,
        "meta_ephemeris_type": 0,
        "meta_classification_type": "U",
        "meta_norad_cat_id": 51850,
        "meta_element_set_no": 999,
        "meta_rev_at_epoch": 470,
        "meta_bstar": 0,
        "meta_mean_motion_dot": 1.01e-06,
        "meta_mean_motion_ddot": 0,
        "tle_line1": "1 51850U 22021A   25344.75110309  .00000101  00000+0  00000+0 0  9990",
        "tle_line2": "2 51850   0.0198 208.6180 0000708  97.8116 266.6878  1.00271681  4701"
      },
      "geometry": {
        "type": "Point",
        "coordinates": [
          48.85625675322778,
          0.007095780716646412
        ]
      }
    },
    {
      "type": "Feature",
      "properties": {
        "norad_id": 54234,
        "name": "NOAA 21 (JPSS-2)",
        "group": "weather",
        "lat": 26.2806051953465,
        "lon": 105.97926153791879,
        "alt_km": 826.6056282230893,
        "timestamp": "2025-12-11T07:02:23.376586+00:00",
        "meta_object_name": "NOAA 21 (JPSS-2)",
        "meta_object_id": "2022-150A",
        "meta_epoch": "2025-12-10T21:51:43.121664",
        "meta_mean_motion": 14.19523435,
        "meta_eccentricity": 0.00022802,
        "meta_inclination": 98.746,
        "meta_ra_of_asc_node": 281.242,
        "meta_arg_of_pericenter": 41.4854,
        "meta_mean_anomaly": 318.6495,
        "meta_ephemeris_type": 0,
        "meta_classification_type": "U",
        "meta_norad_cat_id": 54234,
        "meta_element_set_no": 999,
        "meta_rev_at_epoch": 15983,
        "meta_bstar": 0.00010226591,
        "meta_mean_motion_dot": 1.72e-06,
        "meta_mean_motion_ddot": 0,
        "tle_line1": "1 54234U 22150A   25344.91091576  .00000172  00000+0  10227-3 0  9998",
        "tle_line2": "2 54234  98.7460 281.2420 0002280  41.4854 318.6495 14.19523435159830"
      },
      "geometry": {
        "type": "Point",
        "coordinates": [
          105.97926153791879,
          26.2806051953465
        ]
      }
    },
    {
      "type": "Feature",
      "properties": {
        "norad_id": 54743,
        "name": "METEOSAT-12 (MTG-I1)",
        "group": "weather",
        "lat": 0.20050693273999257,
        "lon": -174.40748147313099,
        "alt_km": 35784.85542735328,
        "timestamp": "2025-12-11T07:02:23.376598+00:00",
        "meta_object_name": "METEOSAT-12 (MTG-I1)",
        "meta_object_id": "2022-170C",
        "meta_epoch": "2025-12-10T21:43:38.678592",
        "meta_mean_motion": 1.00268433,
        "meta_eccentricity": 0.00018228,
        "meta_inclination": 0.6851,
        "meta_ra_of_asc_node": 23.301,
        "meta_arg_of_pericenter": 236.3072,
        "meta_mean_anomaly": 145.9424,
        "meta_ephemeris_type": 0,
        "meta_classification_type": "U",
        "meta_norad_cat_id": 54743,
        "meta_element_set_no": 999,
        "meta_rev_at_epoch": 1109,
        "meta_bstar": 0,
        "meta_mean_motion_dot": -2e-08,
        "meta_mean_motion_ddot": 0,
        "tle_line1": "1 54743U 22170C   25344.90530878 -.00000002  00000+0  00000+0 0  9994",
        "tle_line2": "2 54743   0.6851  23.3010 0001822 236.3072 145.9424  1.00268433 11097"
      },
      "geometry": {
        "type": "Point",
        "coordinates": [
          -174.40748147313099,
          0.20050693273999257
        ]
      }
    }
  ]
}